ALOS-4 (DAICHI-4)       
1 60182U 24123A   24213.56435364  .00003867  00000+0  52452-3 0  9991
2 60182  97.9216 309.5911 0001484 107.2832 252.8542 14.79462103  4505
STARLINK-11168 [DTC]    
1 60183U 24124A   24213.18053510  .00059065  00000+0  36065-3 0  9993
2 60183  53.1576 173.4512 0001103  66.8190 293.2947 15.76836680  5602
STARLINK-11187 [DTC]    
1 60184U 24124B   24213.17565632  .00073480  00000+0  44816-3 0  9996
2 60184  53.1576 173.4187 0001752  44.9622 315.1541 15.76774287  5583
STARLINK-11180 [DTC]    
1 60185U 24124C   24213.17077091  .00124152  00000+0  74665-3 0  9992
2 60185  53.1575 173.3861 0001633  76.9117 283.2086 15.76875632  5599
STARLINK-11197 [DTC]    
1 60186U 24124D   24213.16590164  .00105499  00000+0  63863-3 0  9994
2 60186  53.1566 173.3537 0001928 146.2251 213.8893 15.76797968  5586
STARLINK-11194 [DTC]    
1 60187U 24124E   24213.60471609  .00028327  00000+0  17657-3 0  9990
2 60187  53.1584 171.1102 0001452 109.8512 250.2665 15.76718550  4477
STARLINK-11189 [DTC]    
1 60188U 24124F   24213.15612258  .00189239  00000+0  11309-2 0  9995
2 60188  53.1575 173.2878 0001798 131.8882 228.2292 15.76803856  4407
STARLINK-11183 [DTC]    
1 60189U 24124G   24213.59495912  .00105189  00000+0  63959-3 0  9991
2 60189  53.1579 171.0456 0000972  79.0459 281.0671 15.76699536  4479
STARLINK-11179 [DTC]    
1 60190U 24124H   24213.59006790  .00035927  00000+0  22301-3 0  9993
2 60190  53.1579 171.0123 0001799  67.8754 292.2457 15.76683816  4473
STARLINK-11175 [DTC]    
1 60191U 24124J   24213.58518941  .00100362  00000+0  61019-3 0  9994
2 60191  53.1572 170.9777 0001536  55.7471 304.3695 15.76720690  4472
STARLINK-11173 [DTC]    
1 60192U 24124K   24213.13659037  .00112666  00000+0  68207-3 0  9994
2 60192  53.1575 173.1565 0001083  83.5812 276.5333 15.76768941  4404
STARLINK-11172 [DTC]    
1 60193U 24124L   24213.13170566  .00022624  00000+0  14169-3 0  9992
2 60193  53.1577 173.1229 0001378  91.7762 268.3417 15.76755489  4401
STARLINK-11152 [DTC]    
1 60194U 24124M   24213.19021146  .00082563  00000+0  50300-3 0  9993
2 60194  53.1574 172.7754 0001455 111.4699 248.6477 15.76753523  5609
STARLINK-11193 [DTC]    
1 60195U 24124N   24213.18532900  .00049693  00000+0  30486-3 0  9998
2 60195  53.1575 172.7441 0000980  88.9825 271.1308 15.76801725  5607
STARLINK-31869          
1 60196U 24124P   24213.60591206 -.00004041  00000+0 -91093-4 0  9992
2 60196  53.1612 174.0327 0001818  87.8796 272.2417 15.39613861  4438
STARLINK-32023          
1 60197U 24124Q   24213.24325063  .00015694  00000+0  29013-3 0  9995
2 60197  53.1600 175.3197 0001482  85.2606 274.8572 15.49263262  4385
STARLINK-32046          
1 60198U 24124R   24211.88930658  .00040508  00000+0  77520-3 0  9994
2 60198  53.1603 181.7994 0005838 158.7474 201.3777 15.47673411  5408
STARLINK-32049          
1 60199U 24124S   24213.08335648 -.00039019  00000+0 -96992-3 0  9998
2 60199  53.1595 176.3408 0001269  96.2181 323.2213 15.39637398  5521
STARLINK-32002          
1 60200U 24124T   24210.27566774 -.00588274  00000+0 -12318-1 0  9995
2 60200  53.1610 189.5048 0002330  62.2025 297.9219 15.47065808  3923
STARLINK-32020          
1 60201U 24124U   24213.43575689  .00059498  00000+0  10713-2 0  9999
2 60201  53.1600 174.3882 0002079  44.5888 315.5288 15.49265504  4416
STARLINK-32041          
1 60202U 24124V   24212.20992802 -.00621328  00000+0 -12486-1 0  9991
2 60202  53.1603 180.2455 0000815 110.2582 249.8514 15.48371947  5421
2024-125A               
1 60203U 24125A   24213.54203353  .00015223  00000+0  70471-3 0  9996
2 60203  97.3209  65.6119 0027787 163.8384 196.3744 15.19857899  4151
2024-125B               
1 60204U 24125B   24213.50676930  .00024039  00000+0  10420-2 0  9990
2 60204  97.3203  65.6570 0023277 150.9332 209.3206 15.22118975  4154
2024-125C               
1 60205U 24125C   24213.58296969  .00015462  00000+0  68829-3 0  9996
2 60205  97.3205  65.7074 0023319 155.6990 204.5351 15.21303716  4163
2024-125D               
1 60206U 24125D   24213.59773832  .00011104  00000+0  50826-3 0  9994
2 60206  97.3206  65.6886 0027596 156.4269 203.8238 15.20327060  4167
2024-125E               
1 60207U 24125E   24213.53421916  .00011733  00000+0  53845-3 0  9994
2 60207  97.3206  65.6216 0027800 158.2640 201.9782 15.20219321  4158
2024-125F               
1 60208U 24125F   24213.53778488  .00011824  00000+0  54546-3 0  9994
2 60208  97.3204  65.6170 0028019 159.2140 201.0241 15.20031894  4164
MESAT1                  
1 60209U 24125G   24213.54405621  .00014066  00000+0  65411-3 0  9996
2 60209  97.3203  65.6088 0027046 165.4030 194.7993 15.19738957  4151
FIREFLY ALPHA R/B       
1 60210U 24125H   24213.60856129  .00012714  00000+0  46232-3 0  9996
2 60210  97.3127  67.1692 0051511 156.3348 204.0278 15.27110048  4178
TIANHUI 5C              
1 60211U 24126A   24213.56916731  .00000987  00000+0  11452-3 0  9994
2 60211  97.8294 219.6878 0001319  97.1079 263.0287 14.87618670  3952
TIANHUI 5D              
1 60212U 24126B   24213.56923040  .00000987  00000+0  11449-3 0  9992
2 60212  97.8292 219.6874 0001593 104.1644 255.9749 14.87619364  3963
CZ-6A DEB               
1 60213U 24126C   24213.57934801  .00012061  00000+0  13456-2 0  9996
2 60213  97.8280 219.6702 0004515 120.1983 239.9681 14.87159443  3966
CZ-6A R/B               
1 60214U 24126D   24213.59114668  .00004921  00000+0  32698-3 0  9996
2 60214  97.8182 220.4073 0078812 298.5812  60.7499 15.05146078  3958
TURKSAT 6A              
1 60233U 24127A   24213.00218118  .00000108  00000+0  00000+0 0  9990
2 60233   0.0695 278.0094 0000087 235.5223 206.4522  1.00267723   147
FALCON 9 R/B            
1 60234U 24127B   24192.44448505  .00038298  00000+0  28399+0 0  9992
2 60234  24.0683 112.1208 8359195 179.9835 180.1128  1.03874465    17
2024-128A               
1 60235U 24128A   24213.60038005  .00003333  00000+0  31949-3 0  9997
2 60235  61.9966  86.6271 0016592 270.9949  88.9238 14.95054450  3253
2024-128B               
1 60236U 24128B   24213.57310666  .00003016  00000+0  27786-3 0  9992
2 60236  61.9947  86.5063 0010879 298.1890  61.8098 14.96923420  3257
GRBBETA                 
1 60237U 24128C   24213.63901142  .00004909  00000+0  44016-3 0  9992
2 60237  61.9949  86.2709 0010829 297.5567  62.4420 14.97032500  3250
2024-128D               
1 60238U 24128D   24213.57110467  .00007022  00000+0  62014-3 0  9995
2 60238  61.9952  86.4967 0010798 297.1330  62.8657 14.97159363  3255
2024-128E               
1 60239U 24128E   24213.57577614  .00001924  00000+0  18438-3 0  9993
2 60239  62.0131  86.5751 0010072 309.8948  50.1254 14.96725785  3259
OOV-CUBE                
1 60240U 24128F   24213.58025741  .00003600  00000+0  33233-3 0  9998
2 60240  61.9985  86.5517 0010322 280.9687  79.0239 14.96444167  3258
2024-128G               
1 60241U 24128G   24213.63777460  .00005552  00000+0  49435-3 0  9996
2 60241  61.9952  86.2657 0010818 299.2932  60.7074 14.97128667  3261
2024-128H               
1 60242U 24128H   24213.58613444  .00007725  00000+0  69800-3 0  9994
2 60242  61.9860  86.5327 0013485 278.8462  81.1099 14.96136042  3259
ROBUSTA-3A (MEDITERRAN*)
1 60243U 24128J   24213.58885220  .00007254  00000+0  65993-3 0  9994
2 60243  61.9926  86.5691 0012726 269.1184  90.8445 14.95941302  3252
CATSAT                  
1 60246U 24125J   24213.55737193  .00011339  00000+0  51825-3 0  9994
2 60246  97.3026  66.9436 0054175 120.2979 240.3632 15.19378783  2276
2024-130A               
1 60249U 24130A   24213.58029446  .00151946  69215-5  89344-3 0  9996
2 60249  97.4778 283.1321 0311386 146.7086 215.4178 15.33393611  1902
2024-130B               
1 60250U 24130B   24213.56010118  .00465844  21251-5  93368-3 0  9996
2 60250  97.4225 283.8044 0162248 127.1382 234.4834 15.80343864  1955
